1 32007U 07034C   09250.75380068  .00248814 -44075-5  50477-3 0  9998
2 32007 025.8563 035.0590 1623473 036.4523 333.6357 12.54073263 84098
1 32007U 07034C   09251.55002211  .00254696 -43034-5  52616-3 0  9994
2 32007 025.8577 031.3669 1620964 042.7273 328.8956 12.54483509 84193
1 32007U 07034C   09251.70922125  .00255685 -42860-5  52453-3 0  9990
2 32007 025.8555 030.6227 1620851 043.9630 327.8990 12.54565098 84210
1 32007U 07034C   09252.50509977  .00240088 -41947-5  49134-3 0  9993
2 32007 025.8575 026.9213 1619295 050.2322 322.9092 12.54926254 84319
1 32007U 07034C   09252.74383720  .00239300 -41692-5  48805-3 0  9991
2 32007 025.8586 025.8072 1618907 052.1166 321.5092 12.55039643 84344
1 32007U 07034C   09253.53938604  .00238046 -40954-5  48320-3 0  9994
2 32007 025.8579 022.1175 1617384 058.3698 316.4447 12.55414527 84442
1 32007U 07034C   09253.77800129  .00240979 -40740-5  49210-3 0  9990
2 32007 025.8596 021.0128 1616637 060.2802 314.8909 12.55532127 84471
1 32007U 07034C   09254.41417716  .00239054 -40276-5  48957-3 0  9991
2 32007 025.8589 018.0638 1615175 065.2943 310.6806 12.55831849 84554
1 32007U 07034C   09254.73220346  .00239286 -40064-5  48348-3 0  9993
2 32007 025.8607 016.5723 1614969 067.7979 308.5795 12.55985936 84593
1 32007U 07034C   09255.44759053  .00257933 -39733-5  52895-3 0  9996
2 32007 025.8558 013.2683 1612672 073.4404 303.7666 12.56377368 84682
1 32007U 07034C   09255.68596899  .00265088 -39604-5  52907-3 0  9990
2 32007 025.8613 012.1364 1613042 075.2751 302.0661 12.56514729 84710
1 32007U 07034C   09256.40099851  .00285951 -39391-5  56759-3 0  9990
2 32007 025.8634 008.8163 1611292 080.9265 297.0542 12.56948081 84803
1 32007U 07034C   09256.63925019  .00285716 -39384-5  57149-3 0  9994
2 32007 025.8588 007.7176 1610407 082.7885 295.2058 12.57082202 84838
1 32007U 07034C   09256.71867180  .00284179 -39376-5  56821-3 0  9996
2 32007 025.8585 007.3451 1610225 083.4023 294.6436 12.57125097 84841
1 32007U 07034C   09257.27451720  .00269627 -39328-5  53382-3 0  9994
2 32007 025.8608 004.7486 1609313 087.7763 290.4663 12.57403876 84918
1 32007U 07034C   09257.67147844  .00274659 -39380-5  54604-3 0  9994
2 32007 025.8569 002.8980 1608145 090.8777 287.5762 12.57629472 84968
1 32007U 07034C   09258.38576753  .00285917 -39525-5  56647-3 0  9997
2 32007 025.8568 359.5843 1606370 096.5254 282.0463 12.58050512 85051
1 32007U 07034C   09258.46510234  .00286737 -39552-5  56848-3 0  9992
2 32007 025.8563 359.2145 1606133 097.1480 281.3653 12.58097598 85062
1 32007U 07034C   09259.49631747  .00276865 -39995-5  55339-3 0  9995
2 32007 025.8550 354.3882 1603304 105.2526 272.9541 12.58656135 85195
1 32007U 07034C   09259.65493581  .00277074 -40085-5  55339-3 0  9990
2 32007 025.8550 353.6480 1602934 106.5066 271.7043 12.58743918 85215
1 32007U 07034C   09260.20994021  .00287052 -40397-5  56225-3 0  9996
2 32007 025.8629 351.0630 1602147 110.9187 267.0269 12.59074743 85289
1 32007U 07034C   09260.44773471  .00290748 -40595-5  57487-3 0  9993
2 32007 025.8595 349.9709 1601149 112.7782 264.9537 12.59220636 85318
1 32007U 07034C   09260.52699412  .00290864 -40657-5  57487-3 0  9992
2 32007 025.8595 349.6007 1600955 113.4052 264.2585 12.59266705 85322
1 32007U 07034C   09261.08172448  .00296861 -41127-5  58502-3 0  9994
2 32007 025.8601 347.0150 1599549 117.8028 259.3840 12.59601180 85394
1 32007U 07034C   09261.39862952  .00302855 -41436-5  59752-3 0  9996
2 32007 025.8590 345.5316 1598586 120.3105 256.5572 12.59805370 85436
1 32007U 07034C   09261.47783823  .00302983 -41514-5  59752-3 0  9993
2 32007 025.8590 345.1614 1598384 120.9378 255.7991 12.59853331 85444
1 32007U 07034C   09262.19063931  .00304138 -42276-5  59752-3 0  9994
2 32007 025.8590 341.8279 1596566 126.5830 249.2408 12.60285200 85536
1 32007U 07034C   09262.42817605  .00303448 -42557-5  60450-3 0  9997
2 32007 025.8578 340.7037 1595411 128.4488 247.0406 12.60428863 85561
1 32007U 07034C   09262.50734495  .00303413 -42661-5  60874-3 0  9999
2 32007 025.8561 340.3305 1594938 129.0743 246.2804 12.60476204 85577
1 32007U 07034C   09263.21973542  .00293909 -43555-5  58694-3 0  9994
2 32007 025.8563 336.9986 1593262 134.7289 239.4034 12.60882178 85662
1 32007U 07034C   09263.37801969  .00292994 -43769-5  58738-3 0  9993
2 32007 025.8557 336.2488 1592713 135.9747 237.9174 12.60972338 85685
1 32007U 07034C   09263.53628123  .00293237 -43985-5  58738-3 0  9991
2 32007 025.8557 335.5077 1592323 137.2303 236.3719 12.61065010 85703
1 32007U 07034C   09264.01098351  .00292571 -44655-5  59712-3 0  9997
2 32007 025.8549 333.2832 1590390 140.9754 231.6891 12.61340466 85767
1 32007U 07034C   09264.32738779  .00286239 -45113-5  58155-3 0  9990
2 32007 025.8557 331.8022 1589797 143.4882 228.4917 12.61507162 85806
1 32007U 07034C   09264.48557999  .00286887 -45326-5  58105-3 0  9990
2 32007 025.8591 331.0668 1589494 144.7297 226.9483 12.61599437 85829
1 32007U 07034C   09265.11818612  .00303785 -46336-5  60171-3 0  9998
2 32007 025.8587 328.1099 1588499 149.7851 220.5493 12.62000709 85904
1 32007U 07034C   09265.43438192  .00321662 -46882-5  65393-3 0  9995
2 32007 025.8556 326.6114 1586470 152.3134 217.3035 12.62241044 85941
1 32007U 07034C   09266.14560580  .00329042 -48083-5  66616-3 0  9995
2 32007 025.8561 323.2686 1584482 157.9721 209.7696 12.62714285 86039
1 32007U 07034C   09266.30361280  .00327730 -48353-5  66055-3 0  9998
2 32007 025.8566 322.5235 1584192 159.2368 208.0525 12.62814285 86052
1 32007U 07034C   09267.09348632  .00326728 -49753-5  64334-3 0  9990
2 32007 025.8574 318.8095 1582723 165.5532 199.6289 12.63326231 86157
1 32007U 07034C   09267.40933747  .00327027 -50321-5  65829-3 0  9998
2 32007 025.8565 317.3216 1580990 168.0631 196.2254 12.63531351 86198
1 32007U 07034C   09268.11981614  .00311123 -51585-5  61940-3 0  9996
2 32007 025.8594 313.9803 1579478 173.7144 188.5111 12.63952108 86288
1 32007U 07034C   09268.43552725  .00306815 -52147-5  61204-3 0  9998
2 32007 025.8604 312.5048 1578551 176.2026 185.1858 12.64140308 86322
1 32007U 07034C   09268.90898525  .00306119 -53017-5  60924-3 0  9993
2 32007 025.8604 310.2773 1577336 179.9808 180.0868 12.64427079 86384
1 32007U 07034C   09269.38233285  .00302479 -53872-5  59322-3 0  9996
2 32007 025.8627 308.0457 1576607 183.7505 174.9713 12.64705453 86443
1 32007U 07034C   09270.01330078  .00308284 -55038-5  59997-3 0  9990
2 32007 025.8616 305.0688 1575114 188.7948 168.1816 12.65098012 86527
1 32007U 07034C   09270.40755072  .00309151 -55742-5  60411-3 0  9997
2 32007 025.8628 303.2059 1573867 191.9522 163.9006 12.65340872 86572
1 32007U 07034C   09270.88056366 +.00310286 -56592-5 +60397-3 0  9997
2 32007 025.8623 300.9744 1572683 195.7368 158.8288 12.65633819086635
1 32007U 07034C   09271.19584782  .00318058 -57141-5  62425-3 0  9990
2 32007 025.8633 299.4827 1571411 198.2584 155.5066 12.65849566 86676
1 32007U 07034C   09271.35346143  .00321307 -57399-5  63486-3 0  9999
2 32007 025.8652 298.7401 1570682 199.5099 153.8090 12.65957075 86696
1 32007U 07034C   09271.98383570  .00354390 -58500-5  68972-3 0  9991
2 32007 025.8652 295.7682 1569081 204.5490 147.3004 12.66437279 86779
1 32007U 07034C   09272.37767027  .00365309 -59159-5  71046-3 0  9997
2 32007 025.8661 293.9029 1567732 207.7263 143.0946 12.66742584 86820
1 32007U 07034C   09272.85017791 +.00374341 -59922-5 +72602-3 0  9999
2 32007 025.8664 291.6722 1566200 211.5037 138.1824 12.67104677086881
1 32007U 07034C   09273.16511866  .00361690 -60406-5  69689-3 0  9999
2 32007 025.8665 290.1852 1565525 214.0185 134.8794 12.67305273 86920
1 32007U 07034C   09273.40131614  .00339899 -60760-5  65227-3 0  9998
2 32007 025.8661 289.0652 1565041 215.9283 132.5057 12.67441775 86951
1 32007U 07034C   09273.95232478  .00335591 -61554-5  64886-3 0  9995
2 32007 025.8662 286.4575 1563132 220.3497 126.9837 12.67803303 87024
1 32007U 07034C   09274.42453524  .00308853 -62181-5  58937-3 0  9993
2 32007 025.8678 284.2242 1562457 224.1318 122.3349 12.68053813 87089
1 32007U 07034C   09274.81796963  .00305763 -62688-5  58499-3 0  9995
2 32007 025.8674 282.3621 1561302 227.2894 118.5152 12.68287939 87139
1 32007U 07034C   09275.13267383  .00295624 -63063-5  56578-3 0  9998
2 32007 025.8680 280.8644 1560534 229.8176 115.4648 12.68453420 87171
1 32007U 07034C   09275.36868788  .00295079 -63325-5  56303-3 0  9990
2 32007 025.8701 279.7471 1560013 231.6991 113.2851 12.68592831 87204
1 32007U 07034C   09275.99792828  .00310907 -64022-5  58349-3 0  9995
2 32007 025.8704 276.7632 1558784 236.7494 107.4837 12.69000245 87280
1 32007U 07034C   09276.39109436  .00310888 -64420-5  57871-3 0  9996
2 32007 025.8696 274.8993 1557994 239.9366 103.7548 12.69240438 87338
1 32007U 07034C   09276.94145195 +.00292199 -64887-5 +54837-3 0  9999
2 32007 025.8699 272.2805 1556357 244.3777 098.7225 12.69534381087409
1 32007U 07034C   09277.17730800  .00273963 -65053-5  51805-3 0  9994
2 32007 025.8704 271.1737 1555657 246.2406 096.6491 12.69624972 87431
1 32007U 07034C   09277.33455151  .00268996 -65169-5  50635-3 0  9993
2 32007 025.8703 270.4324 1555470 247.4918 095.3783 12.69701784 87457
1 32007U 07034C   09277.96335426  .00267846 -65575-5  50110-3 0  9996
2 32007 025.8708 267.4390 1554188 252.5608 089.9606 12.70034577 87532
1 32007U 07034C   09278.35628706  .00268325 -65774-5  50139-3 0  9991
2 32007 025.8719 265.5685 1553294 255.7305 086.6352 12.70242413 87583
1 32007U 07034C   09278.90630487 +.00262611 -65995-5 +49262-3 0  9993
2 32007 025.8717 262.9540 1551896 260.1650 082.0467 12.70519781087651
1 32007U 07034C   09279.14200597  .00252735 -66056-5  47331-3 0  9995
2 32007 025.8732 261.8309 1551495 262.0467 080.1452 12.70619505 87682
1 32007U 07034C   09279.29913548  .00250802 -66099-5  46893-3 0  9990
2 32007 025.8729 261.0825 1551213 263.3093 078.9130 12.70694311 87709
1 32007U 07034C   09279.92754786 +.00250835 -66207-5 +46617-3 0  9998
2 32007 025.8725 258.0874 1550021 268.3726 073.9470 12.71007069087788
